55833,ONEWEB-0674,2023,109.55,-1.0,+,87.91,Active,0,LEO,USA,UK,Unknown,Unknown,Unknown,1 55833U 23029AP  25073.58140581 -.00000030  00000+0 -11597-3 0  9999,2 55833  87.9071  21.1175 0002291  92.6509 267.4883 13.14502605 99036,13.14502605,0.0002291,LEO
55834,ONEWEB-0675,2023,109.11,-1.0,+,87.92,Active,0,LEO,USA,UK,Unknown,Unknown,Unknown,1 55834U 23029AQ  25073.60585206  .00000133  00000+0  29977-3 0  9993,2 55834  87.9215  36.3319 0001750  73.3543 286.7782 13.19725091 98300,13.19725091,0.000175,LEO
55835,ONEWEB-0720,2023,109.11,-1.0,+,87.92,Active,0,LEO,USA,UK,Unknown,Unknown,Unknown,1 55835U 23029AR  25073.90122072  .00000137  00000+0  31076-3 0  9992,2 55835  87.9215  36.2705 0002360  77.8027 282.3370 13.19726725 98954,13.19726725,0.000236,LEO
56046,ONEWEB-0537,2023,109.37,-1.0,+,87.91,Active,0,LEO,India,UK,Unknown,Unknown,Unknown,1 56046U 23043A   25073.71696965 -.00000011  00000+0 -62771-4 0  9999,2 56046  87.9090 320.3464 0001492  75.7084 284.4213 13.16596081 99412,13.16596081,0.0001492,LEO
56047,ONEWEB-0538,2023,109.37,-1.0,+,87.91,Active,0,LEO,India,UK,Unknown,Unknown,Unknown,1 56047U 23043B   25073.40665497 -.00000083  00000+0 -25166-3 0  9997,2 56047  87.9089 320.4299 0001759  69.7820 290.3500 13.16595832 98478,13.16595832,0.0001759,LEO
56048,ONEWEB-0546,2023,109.37,-1.0,+,87.91,Active,0,LEO,India,UK,Unknown,Unknown,Unknown,1 56048U 23043C   25073.62196814  .00000033  00000+0  53820-4 0  9996,2 56048  87.9095 320.3554 0000959  81.3306 278.7934 13.16596592 98496,13.16596592,9.59e-05,LEO
56049,ONEWEB-0547,2023,108.94,-1.0,+,87.93,Active,0,LEO,India,UK,Unknown,Unknown,Unknown,1 56049U 23043D   25073.46949400  .00000057  00000+0  10586-3 0  9993,2 56049  87.9339 335.6345 0001866  71.6631 288.4705 13.21830189 97498,13.21830189,0.0001866,LEO
56050,ONEWEB-0548,2023,109.37,-1.0,+,87.91,Active,0,LEO,India,UK,Unknown,Unknown,Unknown,1 56050U 23043E   25073.41930836  .00000042  00000+0  76870-4 0  9996,2 56050  87.9090 320.4369 0001995  95.2909 264.8449 13.16596666 98469,13.16596666,0.0001995,LEO
